OTTER                   
1 62623U 25009Q   26068.72300813  .00012198  00000+0  45151-3 0  9990
2 62623  97.4065 151.3812 0003573 310.7710  49.3219 15.27809545 63722
STARLINK-33850          
1 63679U 25085R   26068.25321343  .00032237  00000+0  11759-2 0  9997
2 63679  42.9980  33.3400 0001524 287.4513  72.6172 15.27577816 48792
